$$SOE
2459580.500000000, A.D. 2022-Jan-01 00:00:00.0000, -2.892015367698595E+08, -1.183222811249883E+08, 2.237503868355368E+07,
2459587.500000000, A.D. 2022-Jan-08 00:00:00.0000, -2.834108176888394E+08, -1.302483983825101E+08, 2.319948423850796E+07,
2459594.500000000, A.D. 2022-Jan-15 00:00:00.0000, -2.771705602803162E+08, -1.419678816152466E+08, 2.398712705953120E+07,
2459601.500000000, A.D. 2022-Jan-22 00:00:00.0000, -2.704888272558531E+08, -1.534612051136249E+08, 2.473655896067902E+07,
2459608.500000000, A.D. 2022-Jan-29 00:00:00.0000, -2.633747461527573E+08, -1.647092047293774E+08, 2.544644789651184E+07,
2459615.500000000, A.D. 2022-Feb-05 00:00:00.0000, -2.558384909401963E+08, -1.756931528264331E+08, 2.611554387674891E+07,
2459622.500000000, A.D. 2022-Feb-12 00:00:00.0000, -2.478912548580394E+08, -1.863948328173343E+08, 2.674268419302125E+07,
2459629.500000000, A.D. 2022-Feb-19 00:00:00.0000, -2.395452159581751E+08, -1.967966102083443E+08, 2.732679821660966E+07,
2459636.500000000, A.D. 2022-Feb-26 00:00:00.0000, -2.308134968893506E+08, -2.068815001834537E+08, 2.786691177646911E+07,
2459643.500000000, A.D. 2022-Mar-05 00:00:00.0000, -2.217101190816148E+08, -2.166332316851566E+08, 2.836215100612357E+07,
2459650.500000000, A.D. 2022-Mar-12 00:00:00.0000, -2.122499515110675E+08, -2.260363074456714E+08, 2.881174559524339E+07,
2459657.500000000, A.D. 2022-Mar-19 00:00:00.0000, -2.024486544573005E+08, -2.350760593797412E+08, 2.921503141234107E+07,
2459664.500000000, A.D. 2022-Mar-26 00:00:00.0000, -1.923226187796321E+08, -2.437386988398545E+08, 2.957145247457388E+07,
2459671.500000000, A.D. 2022-Apr-02 00:00:00.0000, -1.818889012408504E+08, -2.520113613516599E+08, 2.988056223883794E+07,
2459678.500000000, A.D. 2022-Apr-09 00:00:00.0000, -1.711651562388843E+08, -2.598821454699886E+08, 3.014202418159090E+07,
2459685.500000000, A.D. 2022-Apr-16 00:00:00.0000, -1.601695642530376E+08, -2.673401448438253E+08, 3.035561168975049E+07,
2459692.500000000, A.D. 2022-Apr-23 00:00:00.0000, -1.489207589655797E+08, -2.743754722466146E+08, 3.052120748098142E+07,
2459699.500000000, A.D. 2022-Apr-30 00:00:00.0000, -1.374377556371367E+08, -2.809792777473060E+08, 3.063880256528793E+07,
2459706.500000000, A.D. 2022-May-07 00:00:00.0000, -1.257398783805041E+08, -2.871437630096961E+08, 3.070849433785209E+07,
2459713.500000000, A.D. 2022-May-14 00:00:00.0000, -1.138466856328282E+08, -2.928621887742389E+08, 3.073048396230523E+07,
2459720.500000000, A.D. 2022-May-21 00:00:00.0000, -1.017778965130721E+08, -2.981288749284182E+08, 3.070507333521436E+07,
2459727.500000000, A.D. 2022-May-28 00:00:00.0000, -8.955331915660390E+07, -3.029391943582633E+08, 3.063266164299783E+07,
2459734.500000000, A.D. 2022-Jun-04 00:00:00.0000, -7.719278131293784E+07, -3.072895611901184E+08, 3.051374150829385E+07,
2459741.500000000, A.D. 2022-Jun-11 00:00:00.0000, -6.471606356716054E+07, -3.111774137721766E+08, 3.034889476239178E+07,
2459748.500000000, A.D. 2022-Jun-18 00:00:00.0000, -5.214283558889534E+07, -3.146011927842796E+08, 3.013878789322591E+07,
2459755.500000000, A.D. 2022-Jun-25 00:00:00.0000, -3.949259575888397E+07, -3.175603149528285E+08, 2.988416721821830E+07,
2459762.500000000, A.D. 2022-Jul-02 00:00:00.0000, -2.678461435565883E+07, -3.200551429101190E+08, 2.958585382052146E+07,
2459769.500000000, A.D. 2022-Jul-09 00:00:00.0000, -1.403788016528907E+07, -3.220869515131662E+08, 2.924473828321412E+07,
2459776.500000000, A.D. 2022-Jul-16 00:00:00.0000, -1.271050760688479E+06, -3.236578900389653E+08, 2.886177536899181E+07,
2459783.500000000, A.D. 2022-Jul-23 00:00:00.0000, 1.149759122019931E+07, -3.247709406744424E+08, 2.843797890386549E+07,
2459790.500000000, A.D. 2022-Jul-30 00:00:00.0000, 2.425017581040975E+07, -3.254298771392448E+08, 2.797441662922186E+07,
2459797.500000000, A.D. 2022-Aug-06 00:00:00.0000, 3.696928104826232E+07, -3.256392232640521E+08, 2.747220478764483E+07,
2459804.500000000, A.D. 2022-Aug-13 00:00:00.0000, 4.963796512152135E+07, -3.254042092212266E+08, 2.693250278209537E+07,
2459811.500000000, A.D. 2022-Aug-20 00:00:00.0000, 6.223979383146080E+07, -3.247307263348369E+08, 2.635650804582453E+07,
2459818.500000000, A.D. 2022-Aug-27 00:00:00.0000, 7.475886356419562E+07, -3.236252815899248E+08, 2.574545108752413E+07,
2459825.500000000, A.D. 2022-Sep-03 00:00:00.0000, 8.717982016982199E+07, -3.220949523128887E+08, 2.510059070581679E+07,
2459832.500000000, A.D. 2022-Sep-10 00:00:00.0000, 9.948787401937217E+07, -3.201473413258731E+08, 2.442320938823278E+07,
2459839.500000000, A.D. 2022-Sep-17 00:00:00.0000, 1.116688114717935E+08, -3.177905328677685E+08, 2.371460890889360E+07,
2459846.500000000, A.D. 2022-Sep-24 00:00:00.0000, 1.237090030330837E+08, -3.150330495893487E+08, 2.297610612870213E+07,
2459853.500000000, A.D. 2022-Oct-01 00:00:00.0000, 1.355954086819234E+08, -3.118838108698674E+08, 2.220902898499227E+07,
2459860.500000000, A.D. 2022-Oct-08 00:00:00.0000, 1.473155810093684E+08, -3.083520921260857E+08, 2.141471268373156E+07,
2459867.500000000, A.D. 2022-Oct-15 00:00:00.0000, 1.588576654826717E+08, -3.044474840741065E+08, 2.059449628196730E+07,
2459874.500000000, A.D. 2022-Oct-22 00:00:00.0000, 1.702103958926067E+08, -3.001798537534503E+08, 1.974971972363220E+07,
2459881.500000000, A.D. 2022-Oct-29 00:00:00.0000, 1.813630877215495E+08, -2.955593100015171E+08, 1.888172088551867E+07,
2459888.500000000, A.D. 2022-Nov-05 00:00:00.0000, 1.923056317678992E+08, -2.905961707085268E+08, 1.799183266136882E+07,
2459895.500000000, A.D. 2022-Nov-12 00:00:00.0000, 2.030284862901662E+08, -2.853009306355450E+08, 1.708138036307742E+07,
2459902.500000000, A.D. 2022-Nov-19 00:00:00.0000, 2.135226671689719E+08, -2.796842307773493E+08, 1.615167942058529E+07,
2459909.500000000, A.D. 2022-Nov-26 00:00:00.0000, 2.237797365559921E+08, -2.737568296753832E+08, 1.520403331619217E+07,
2459916.500000000, A.D. 2022-Dec-03 00:00:00.0000, 2.337917903710730E+08, -2.675295766838840E+08, 1.423973172846828E+07,
2459923.500000000, A.D. 2022-Dec-10 00:00:00.0000, 2.435514448751473E+08, -2.610133871482947E+08, 1.326004887373482E+07,
2459930.500000000, A.D. 2022-Dec-17 00:00:00.0000, 2.530518225109177E+08, -2.542192194863031E+08, 1.226624203060347E+07,
2459937.500000000, A.D. 2022-Dec-24 00:00:00.0000, 2.622865372727371E+08, -2.471580541904742E+08, 1.125955022114481E+07,
2459944.500000000, A.D. 2022-Dec-31 00:00:00.0000, 2.712496801021867E+08, -2.398408745875449E+08, 1.024119301338908E+07,
2459951.500000000, A.D. 2023-Jan-07 00:00:00.0000, 2.799358045593584E+08, -2.322786483276376E+08, 9.212369501513764E+06,
2459958.500000000, A.D. 2023-Jan-14 00:00:00.0000, 2.883399109183681E+08, -2.244823090366841E+08, 8.174257673712954E+06,
2459965.500000000, A.D. 2023-Jan-21 00:00:00.0000, 2.964574281472392E+08, -2.164627412288666E+08, 7.128013956572562E+06,
2459972.500000000, A.D. 2023-Jan-28 00:00:00.0000, 3.042841975375779E+08, -2.082307685970487E+08, 6.074772573358342E+06,
2459979.500000000, A.D. 2023-Feb-04 00:00:00.0000, 3.118164578646805E+08, -1.997971425803389E+08, 5.015644973750129E+06,
2459986.500000000, A.D. 2023-Feb-11 00:00:00.0000, 3.190508303588567E+08, -1.911725313317346E+08, 3.951719475051425E+06,
2459993.500000000, A.D. 2023-Feb-18 00:00:00.0000, 3.259843034873014E+08, -1.823675098365292E+08, 2.884061044333503E+06,
2460000.500000000, A.D. 2023-Feb-25 00:00:00.0000, 3.326142178617449E+08, -1.733925512687162E+08, 1.813711175185099E+06,
2460007.500000000, A.D. 2023-Mar-04 00:00:00.0000, 3.389382514188839E+08, -1.642580194918252E+08, 7.416878426388353E+05,
2460014.500000000, A.D. 2023-Mar-11 00:00:00.0000, 3.449544049404393E+08, -1.549741626305785E+08, -3.310144743392542E+05,
2460021.500000000, A.D. 2023-Mar-18 00:00:00.0000, 3.506609879913658E+08, -1.455511076923915E+08, -1.403424718700923E+06,
2460028.500000000, A.D. 2023-Mar-25 00:00:00.0000, 3.560566055036570E+08, -1.359988562175165E+08, -2.474595159179427E+06,
2460035.500000000, A.D. 2023-Apr-01 00:00:00.0000, 3.611401454492480E+08, -1.263272804968178E+08, -3.543601285502560E+06,
2460042.500000000, A.D. 2023-Apr-08 00:00:00.0000, 3.659107670050815E+08, -1.165461190681601E+08, -4.609541543973722E+06,
2460049.500000000, A.D. 2023-Apr-15 00:00:00.0000, 3.703678868887869E+08, -1.066649725410174E+08, -5.671536794668503E+06,
2460056.500000000, A.D. 2023-Apr-22 00:00:00.0000, 3.745111656801846E+08, -9.669330274761862E+07, -6.728729911071226E+06,
2460063.500000000, A.D. 2023-Apr-29 00:00:00.0000, 3.783404968645684E+08, -8.664043291336593E+07, -7.780285593998428E+06,
2460070.500000000, A.D. 2023-May-06 00:00:00.0000, 3.818559968387744E+08, -7.651554701408243E+07, -8.825390097218029E+06,
2460077.500000000, A.D. 2023-May-13 00:00:00.0000, 3.850579949029354E+08, -6.632768916675682E+07, -9.863250852299713E+06,
2460084.500000000, A.D. 2023-May-20 00:00:00.0000, 3.879470234689344E+08, -5.608576350117867E+07, -1.089309605821353E+07,
2460091.500000000, A.D. 2023-May-27 00:00:00.0000, 3.905238086737185E+08, -4.579853450086986E+07, -1.191417425948759E+07,
2460098.500000000, A.D. 2023-Jun-03 00:00:00.0000, 3.927892614482030E+08, -3.547462774892771E+07, -1.292575391946870E+07,
2460105.500000000, A.D. 2023-Jun-10 00:00:00.0000, 3.947444690576404E+08, -2.512253105686346E+07, -1.392712299511435E+07,
2460112.500000000, A.D. 2023-Jun-17 00:00:00.0000, 3.963906871935062E+08, -1.475059600389535E+07, -1.491758852930417E+07,
2460119.500000000, A.D. 2023-Jun-24 00:00:00.0000, 3.977293329255536E+08, -4.367039801328080E+06, -1.589647628820177E+07,
2460126.500000000, A.D. 2023-Jul-01 00:00:00.0000, 3.987619787532016E+08, 6.020053375262412E+06, -1.686313040150340E+07,
2460133.500000000, A.D. 2023-Jul-08 00:00:00.0000, 3.994903460713238E+08, 1.640273243742361E+07, -1.781691278657557E+07,
2460140.500000000, A.D. 2023-Jul-15 00:00:00.0000, 3.999162967667034E+08, 2.677317801303601E+07, -1.875720247245847E+07,
2460147.500000000, A.D. 2023-Jul-22 00:00:00.0000, 4.000418264542270E+08, 3.712369863876665E+07, -1.968339523320870E+07,
$$EOE